#dV2023  1  6 10  0  0.00000000    1682       CTS   FIT  GFZ
## 2243 468000.00000000    30.00000000 59950 0.4166666666667
+    1   L65  0  0  0  0  0  0  0  0  0  0  0  0  0  0  0  0
+          0  0  0  0  0  0  0  0  0  0  0  0  0  0  0  0  0
+          0  0  0  0  0  0  0  0  0  0  0  0  0  0  0  0  0
+          0  0  0  0  0  0  0  0  0  0  0  0  0  0  0  0  0
+          0  0  0  0  0  0  0  0  0  0  0  0  0  0  0  0  0
++         0  0  0  0  0  0  0  0  0  0  0  0  0  0  0  0  0
++         0  0  0  0  0  0  0  0  0  0  0  0  0  0  0  0  0
++         0  0  0  0  0  0  0  0  0  0  0  0  0  0  0  0  0
++         0  0  0  0  0  0  0  0  0  0  0  0  0  0  0  0  0
++         0  0  0  0  0  0  0  0  0  0  0  0  0  0  0  0  0
%c L  cc GPS ccc cccc cccc cccc cccc ccccc ccccc ccccc ccccc
%c cc cc ccc ccc cccc cccc cccc cccc ccccc ccccc ccccc ccccc
%f  0.0000000  0.000000000  0.00000000000  0.000000000000000
%f  0.0000000  0.000000000  0.00000000000  0.000000000000000
%i    0    0    0    0      0      0      0      0         0
%i    0    0    0    0      0      0      0      0         0
/* CCCCCCCCCCCCCCCCCCCCCCCCCCCCCCCCCCCCCCCCCCCCCCCCCCCCCCCCCCCCCCCCCCCCCCCCCCCCC
/* C                             GFZ RSO-ORBIT                                 C
/* C DOI: https://doi.org/10.5880/GFZ_ORBIT/RSO/L65_G_v02                      C
/* C                                                                           C
/* C DORIS        RMS: not applicable                                          C
/* C GNSS-E Code  RMS: not applicable                                          C
/* C GNSS-E Phase RMS: not applicable                                          C
/* C GNSS-G Code  RMS:  49.790 [cm]   Obs.acc.:     14679 Obs.eli.:      1129  C
/* C GNSS-G Phase RMS:   4.174 [mm]   Obs.acc.:     14679 Obs.eli.:      1129  C
/* C SLR          RMS:   4.629 [cm]   Obs.acc.:         7 Obs.eli.:         0  C
/* C                                                                           C
/* CCCCCCCCCCCCCCCCCCCCCCCCCCCCCCCCCCCCCCCCCCCCCCCCCCCCCCCCCCCCCCCCCCCCCCCCCCCCC
*  2023  1  6 21 54  0.00000000
PL65   2952.112350  -6024.858665  -1471.610002  22423.931553
VL65   4025.224077 -16204.508742  74432.178690 999999.999999
*  2023  1  6 21 54 30.00000000
PL65   2962.455598  -6070.163331  -1247.537192  22424.398770
VL65   2871.234938 -13994.947903  74935.865591 999999.999999
*  2023  1  6 21 55  0.00000000
PL65   2969.346210  -6108.807683  -1022.078054  22424.866085
VL65   1723.696168 -11764.718666  75356.309413 999999.999999
*  2023  1  6 21 55 30.00000000
PL65   2972.805593  -6140.733496   -795.483065  22425.333236
VL65    583.974156  -9516.343404  75693.026978 999999.999999
*  2023  1  6 21 56  0.00000000
PL65   2972.859219  -6165.890144   -568.004009  22425.800290
VL65   -546.585057  -7252.369513  75945.631353 999999.999999
*  2023  1  6 21 56 30.00000000
PL65   2969.536571  -6184.234683   -339.893685  22426.267237
VL65  -1666.656420  -4975.366738  76113.830935 999999.999999
*  2023  1  6 21 57  0.00000000
PL65   2962.871072  -6195.731906   -111.405628  22426.734024
VL65  -2774.937172  -2687.925693  76197.428851 999999.999999
*  2023  1  6 21 57 30.00000000
PL65   2952.900019  -6200.354409    117.206182  22427.200923
VL65  -3870.148038   -392.656944  76196.324139 999999.999999
*  2023  1  6 21 58  0.00000000
PL65   2939.664508  -6198.082647    345.687608  22427.668151
VL65  -4951.035038   1907.812352  76110.514177 999999.999999
*  2023  1  6 21 58 30.00000000
PL65   2923.209359  -6188.904974    573.784654  22428.135415
VL65  -6016.371869   4210.842750  75940.095045 999999.999999
*  2023  1  6 21 59  0.00000000
PL65   2903.583025  -6172.817678    801.243761  22428.602524
VL65  -7064.961432   6513.785564  75685.261542 999999.999999
*  2023  1  6 21 59 30.00000000
PL65   2880.837506  -6149.825001   1027.812101  22429.069467
VL65  -8095.636882   8813.987523  75346.308377 999999.999999
*  2023  1  6 22  0  0.00000000
PL65   2855.028255  -6119.939145   1253.237882  22429.536558
VL65  -9107.262617  11108.797400  74923.629298 999999.999999
*  2023  1  6 22  0 30.00000000
PL65   2826.214084  -6083.180255   1477.270637  22430.003707
VL65 -10098.736214  13395.569530  74417.713997 999999.999999
*  2023  1  6 22  1  0.00000000
PL65   2794.457057  -6039.576405   1699.661510  22430.470653
VL65 -11068.992071  15671.664602  73829.145616 999999.999999
*  2023  1  6 22  1 30.00000000
PL65   2759.822379  -5989.163577   1920.163530  22430.937535
VL65 -12017.001618  17934.450344  73158.599770 999999.999999
*  2023  1  6 22  2  0.00000000
PL65   2722.378288  -5931.985635   2138.531899  22431.404420
VL65 -12941.771800  20181.304504  72406.847753 999999.999999
*  2023  1  6 22  2 30.00000000
PL65   2682.195942  -5868.094284   2354.524276  22431.871438
VL65 -13842.349080  22409.624684  71574.757733 999999.999999
*  2023  1  6 22  3  0.00000000
PL65   2639.349299  -5797.548999   2567.901059  22432.338369
VL65 -14717.822172  24616.833046  70663.284345 999999.999999
*  2023  1  6 22  3 30.00000000
PL65   2593.914987  -5720.416958   2778.425635  22432.805316
VL65 -15567.318802  26800.370415  69673.466661 999999.999999
*  2023  1  6 22  4  0.00000000
PL65   2545.972197  -5636.772986   2985.864642  22433.272315
VL65 -16390.005937  28957.699184  68606.434803 999999.999999
*  2023  1  6 22  4 30.00000000
PL65   2495.602553  -5546.699481   3189.988245  22433.739465
VL65 -17185.092680  31086.311077  67463.407304 999999.999999
*  2023  1  6 22  5  0.00000000
PL65   2442.889991  -5450.286315   3390.570391  22434.206667
VL65 -17951.830989  33183.729281  66245.687573 999999.999999
*  2023  1  6 22  5 30.00000000
PL65   2387.920621  -5347.630743   3587.389062  22434.673934
VL65 -18689.516673  35247.510962  64954.662552 999999.999999
*  2023  1  6 22  6  0.00000000
PL65   2330.782604  -5238.837293   3780.226527  22435.141124
VL65 -19397.490223  37275.250212  63591.801314 999999.999999
*  2023  1  6 22  6 30.00000000
PL65   2271.566008  -5124.017651   3968.869581  22435.608261
VL65 -20075.137319  39264.581916  62158.653374 999999.999999
*  2023  1  6 22  7  0.00000000
PL65   2210.362677  -5003.290531   4153.109785  22436.075630
VL65 -20721.889108  41213.185688  60656.845617 999999.999999
*  2023  1  6 22  7 30.00000000
PL65   2147.266094  -4876.781539   4332.743693  22436.543006
VL65 -21337.222254  43118.788310  59088.078820 999999.999999
*  2023  1  6 22  8  0.00000000
PL65   2082.371242  -4744.623029   4507.573069  22437.010175
VL65 -21920.658248  44979.164885  57454.124802 999999.999999
*  2023  1  6 22  8 30.00000000
PL65   2015.774477  -4606.953954   4677.405095  22437.477269
VL65 -22471.762450  46792.139363  55756.825931 999999.999999
*  2023  1  6 22  9  0.00000000
PL65   1947.573390  -4463.919721   4842.052591  22437.944291
VL65 -22990.145586  48555.587682  53998.095866 999999.999999
*  2023  1  6 22  9 30.00000000
PL65   1877.866668  -4315.672023   5001.334219  22438.411585
VL65 -23475.466069  50267.442828  52179.916693 999999.999999
*  2023  1  6 22 10  0.00000000
PL65   1806.753952  -4162.368666   5155.074685  22438.879162
VL65 -23927.430279  51925.697991  50304.334229 999999.999999
*  2023  1  6 22 10 30.00000000
PL65   1734.335691  -4004.173382   5303.104925  22439.347354
VL65 -24345.791701  53528.408369  48373.454028 999999.999999
*  2023  1  6 22 11  0.00000000
PL65   1660.713006  -3841.255644   5445.262273  22439.815937
VL65 -24730.349951  55073.691907  46389.438524 999999.999999
*  2023  1  6 22 11 30.00000000
PL65   1585.987550  -3673.790477   5581.390637  22440.284075
VL65 -25080.950663  56559.730983  44354.505617 999999.999999
*  2023  1  6 22 12  0.00000000
PL65   1510.261369  -3501.958256   5711.340658  22440.751822
VL65 -25397.485550  57984.775130  42270.925658 999999.999999
*  2023  1  6 22 12 30.00000000
PL65   1433.636767  -3325.944506   5834.969861  22441.219399
VL65 -25679.891968  59347.141998  40141.017888 999999.999999
*  2023  1  6 22 13  0.00000000
PL65   1356.216165  -3145.939697   5952.142802  22441.686704
VL65 -25928.152393  60645.218067  37967.148392 999999.999999
*  2023  1  6 22 13 30.00000000
PL65   1278.101973  -2962.139033   6062.731200  22442.153896
VL65 -26142.293748  61877.460553  35751.728340 999999.999999
*  2023  1  6 22 14  0.00000000
PL65   1199.396452  -2774.742240   6166.614074  22442.621335
VL65 -26322.386984  63042.399547  33497.211880 999999.999999
*  2023  1  6 22 14 30.00000000
PL65   1120.201586  -2583.953337   6263.677867  22443.088871
VL65 -26468.547003  64138.640282  31206.093233 999999.999999
*  2023  1  6 22 15  0.00000000
PL65   1040.618946  -2389.980417   6353.816560  22443.556144
VL65 -26580.932557  65164.864254  28880.902597 999999.999999
*  2023  1  6 22 15 30.00000000
PL65    960.749565  -2193.035413   6436.931773  22444.023269
VL65 -26659.745087  66119.829069  26524.203338 999999.999999
*  2023  1  6 22 16  0.00000000
PL65    880.693808  -1993.333870   6512.932866  22444.490487
VL65 -26705.226884  67002.369490  24138.590681 999999.999999
*  2023  1  6 22 16 30.00000000
PL65    800.551254  -1791.094709   6581.737029  22444.957703
VL65 -26717.659760  67811.399479  21726.690263 999999.999999
*  2023  1  6 22 17  0.00000000
PL65    720.420578  -1586.539990   6643.269373  22445.424885
VL65 -26697.364605  68545.915275  19291.155803 999999.999999
*  2023  1  6 22 17 30.00000000
PL65    640.399435  -1379.894654   6697.463006  22445.891923
VL65 -26644.701690  69204.997232  16834.664337 999999.999999
*  2023  1  6 22 18  0.00000000
PL65    560.584337  -1171.386279   6744.259098 999999.999999
VL65 -26560.071285  69787.809315  14359.912484 999999.999999
*  2023  1  6 22 18 30.00000000
PL65    481.070536   -961.244823   6783.606932  22446.825824
VL65 -26443.913232  70293.599649  11869.612772 999999.999999
*  2023  1  6 22 19  0.00000000
PL65    401.951910   -749.702374   6815.463951  22447.292834
VL65 -26296.703567  70721.699799   9366.490065 999999.999999
EOF
